start=new Date('2023-01-14T00:00:00.000Z').valueOf();
sats=[{"CENTER_NAME":"EARTH","RCS_SIZE":"LARGE","ECCENTRICITY":"0.00022510","TIME_SYSTEM":"UTC","REF_FRAME":"TEME","PERIAPSIS":"538.208","MEAN_ELEMENT_THEORY":"SGP4","ELEMENT_SET_NO":"999","MEAN_MOTION_DDOT":"0.0000000000000","SEMIMAJOR_AXIS":"6917.900","EPHEMERIS_TYPE":"0","RA_OF_ASC_NODE":"126.2000","ARG_OF_PERICENTER":"34.6190","MEAN_ANOMALY":"325.4949","NORAD_CAT_ID":"51893","PERIOD":"95.438","TLE_LINE2":"2 51893  53.2158 126.2000 0002251  34.6190 325.4949 15.08833478 49541","OBJECT_ID":"2022-022AT","MEAN_MOTION_DOT":"-0.00000187","INCLINATION":"53.2158","OBJECT_TYPE":"PAYLOAD","MEAN_MOTION":"15.08833478","EPOCH":"2023-01-13T16:23:33.726336","DECAY_DATE":null,"FILE":"3743722","SITE":"AFETR","GP_ID":"222975149","BSTAR":"0.00000637970000","CLASSIFICATION_TYPE":"U","OBJECT_NAME":"STARLINK-3579","REV_AT_EPOCH":"4954","TLE_LINE1":"1 51893U 22022AT  23013.68302924 -.00000187  00000-0  63797-5 0  9991","LAUNCH_DATE":"2022-03-03","COUNTRY_CODE":"US","APOAPSIS":"541.323"},{"LAUNCH_DATE":"2022-03-03","COUNTRY_CODE":"US","APOAPSIS":"541.515","BSTAR":"0.00003066600000","GP_ID":"222973405","TLE_LINE1":"1 51894U 22022AU  23013.68670960  .00000200  00000-0  30666-4 0  9993","CLASSIFICATION_TYPE":"U","OBJECT_NAME":"STARLINK-3595","REV_AT_EPOCH":"4954","EPOCH":"2023-01-13T16:28:51.709440","MEAN_MOTION":"15.08833650","OBJECT_TYPE":"PAYLOAD","SITE":"AFETR","DECAY_DATE":null,"FILE":"3743722","PERIOD":"95.438","TLE_LINE2":"2 51894  53.2153 126.1824 0002530  40.8805 319.2376 15.08833650 49549","OBJECT_ID":"2022-022AU","MEAN_MOTION_DOT":"0.00000200","NORAD_CAT_ID":"51894","INCLINATION":"53.2153","EPHEMERIS_TYPE":"0","SEMIMAJOR_AXIS":"6917.900","MEAN_MOTION_DDOT":"0.0000000000000","ELEMENT_SET_NO":"999","ARG_OF_PERICENTER":"40.8805","MEAN_ANOMALY":"319.2376","RA_OF_ASC_NODE":"126.1824","MEAN_ELEMENT_THEORY":"SGP4","PERIAPSIS":"538.015","REF_FRAME":"TEME","ECCENTRICITY":"0.00025300","TIME_SYSTEM":"UTC","CENTER_NAME":"EARTH","RCS_SIZE":"LARGE"},{"CENTER_NAME":"EARTH","RCS_SIZE":"LARGE","ECCENTRICITY":"0.00023840","TIME_SYSTEM":"UTC","REF_FRAME":"TEME","PERIAPSIS":"538.088","MEAN_ELEMENT_THEORY":"SGP4","ELEMENT_SET_NO":"999","SEMIMAJOR_AXIS":"6917.872","MEAN_MOTION_DDOT":"0.0000000000000","EPHEMERIS_TYPE":"0","RA_OF_ASC_NODE":"125.9177","ARG_OF_PERICENTER":"37.0017","MEAN_ANOMALY":"323.1139","NORAD_CAT_ID":"51895","TLE_LINE2":"2 51895  53.2151 125.9177 0002384  37.0017 323.1139 15.08842807 49495","PERIOD":"95.437","MEAN_MOTION_DOT":"0.00018566","OBJECT_ID":"2022-022AV","INCLINATION":"53.2151","OBJECT_TYPE":"PAYLOAD","MEAN_MOTION":"15.08842807","EPOCH":"2023-01-13T17:53:39.132384","FILE":"3743722","DECAY_DATE":null,"SITE":"AFETR","GP_ID":"222973655","BSTAR":"0.00118140000000","CLASSIFICATION_TYPE":"U","OBJECT_NAME":"STARLINK-3594","REV_AT_EPOCH":"4949","TLE_LINE1":"1 51895U 22022AV  23013.74559181  .00018566  00000-0  11814-2 0  9998","COUNTRY_CODE":"US","LAUNCH_DATE":"2022-03-03","APOAPSIS":"541.386"},{"COUNTRY_CODE":"US","LAUNCH_DATE":"2022-03-03","APOAPSIS":"541.390","BSTAR":"0.00007199000000","GP_ID":"222974903","CLASSIFICATION_TYPE":"U","OBJECT_NAME":"STARLINK-3593","REV_AT_EPOCH":"4953","TLE_LINE1":"1 51896U 22022AW  23013.68029843  .00000858  00000-0  71990-4 0  9997","OBJECT_TYPE":"PAYLOAD","EPOCH":"2023-01-13T16:19:37.784352","MEAN_MOTION":"15.08856685","DECAY_DATE":null,"FILE":"3743722","SITE":"AFETR","NORAD_CAT_ID":"51896","PERIOD":"95.436","TLE_LINE2":"2 51896  53.2163 126.2131 0002451  34.3432 325.7719 15.08856685 49535","OBJECT_ID":"2022-022AW","MEAN_MOTION_DOT":"0.00000858","INCLINATION":"53.2163","ELEMENT_SET_NO":"999","EPHEMERIS_TYPE":"0","SEMIMAJOR_AXIS":"6917.829","MEAN_MOTION_DDOT":"0.0000000000000","RA_OF_ASC_NODE":"126.2131","ARG_OF_PERICENTER":"34.3432","MEAN_ANOMALY":"325.7719","MEAN_ELEMENT_THEORY":"SGP4","REF_FRAME":"TEME","PERIAPSIS":"537.999","ECCENTRICITY":"0.00024510","TIME_SYSTEM":"UTC","CENTER_NAME":"EARTH","RCS_SIZE":"LARGE"},{"COUNTRY_CODE":"US","LAUNCH_DATE":"2022-03-03","APOAPSIS":"541.593","GP_ID":"222974651","BSTAR":"-0.00003570400000","OBJECT_NAME":"STARLINK-3598","CLASSIFICATION_TYPE":"U","REV_AT_EPOCH":"4948","TLE_LINE1":"1 51897U 22022AX  23013.67566055 -.00000857  00000-0 -35704-4 0  9992","OBJECT_TYPE":"PAYLOAD","MEAN_MOTION":"15.08837871","EPOCH":"2023-01-13T16:12:57.071520","FILE":"3743722","DECAY_DATE":null,"SITE":"AFETR","NORAD_CAT_ID":"51897","PERIOD":"95.438","TLE_LINE2":"2 51897  53.2155 126.2321 0002661  29.3273 330.7868 15.08837871 49489","OBJECT_ID":"2022-022AX","MEAN_MOTION_DOT":"-0.00000857","INCLINATION":"53.2155","ELEMENT_SET_NO":"999","SEMIMAJOR_AXIS":"6917.887","MEAN_MOTION_DDOT":"0.0000000000000","EPHEMERIS_TYPE":"0","RA_OF_ASC_NODE":"126.2321","ARG_OF_PERICENTER":"29.3273","MEAN_ANOMALY":"330.7868","REF_FRAME":"TEME","PERIAPSIS":"537.911","MEAN_ELEMENT_THEORY":"SGP4","ECCENTRICITY":"0.00026610","TIME_SYSTEM":"UTC","CENTER_NAME":"EARTH","RCS_SIZE":"LARGE"},{"REV_AT_EPOCH":"4952","OBJECT_NAME":"STARLINK-3597","CLASSIFICATION_TYPE":"U","TLE_LINE1":"1 51898U 22022AY  23013.60575806  .00003842  00000-0  25936-3 0  9990","BSTAR":"0.00025936000000","GP_ID":"222942133","APOAPSIS":"541.149","LAUNCH_DATE":"2022-03-03","COUNTRY_CODE":"US","INCLINATION":"53.2144","NORAD_CAT_ID":"51898","OBJECT_ID":"2022-022AY","TLE_LINE2":"2 51898  53.2144 126.5433 0002038  44.8340 315.2817 15.08842022 49521","PERIOD":"95.437","MEAN_MOTION_DOT":"0.00003842","DECAY_DATE":null,"FILE":"3743417","SITE":"AFETR","OBJECT_TYPE":"PAYLOAD","EPOCH":"2023-01-13T14:32:17.496384","MEAN_MOTION":"15.08842022","MEAN_ELEMENT_THEORY":"SGP4","REF_FRAME":"TEME","PERIAPSIS":"538.329","RA_OF_ASC_NODE":"126.5433","MEAN_ANOMALY":"315.2817","ARG_OF_PERICENTER":"44.8340","ELEMENT_SET_NO":"999","EPHEMERIS_TYPE":"0","MEAN_MOTION_DDOT":"0.0000000000000","SEMIMAJOR_AXIS":"6917.874","RCS_SIZE":"LARGE","CENTER_NAME":"EARTH","TIME_SYSTEM":"UTC","ECCENTRICITY":"0.00020380"},{"OBJECT_NAME":"STARLINK-3700","REV_AT_EPOCH":"4744","CLASSIFICATION_TYPE":"U","TLE_LINE1":"1 51956U 22025A   23013.76123180  .00002647  00000-0  18430-3 0  9992","GP_ID":"222974653","BSTAR":"0.00018430000000","APOAPSIS":"541.812","COUNTRY_CODE":"US","LAUNCH_DATE":"2022-03-09","INCLINATION":"53.2172","NORAD_CAT_ID":"51956","TLE_LINE2":"2 51956  53.2172 155.8454 0003023  44.8837 315.2399 15.08847913 47449","MEAN_MOTION_DOT":"0.00002647","PERIOD":"95.437","OBJECT_ID":"2022-025A","DECAY_DATE":null,"FILE":"3743722","SITE":"AFETR","OBJECT_TYPE":"PAYLOAD","MEAN_MOTION":"15.08847913","EPOCH":"2023-01-13T18:16:10.427520","REF_FRAME":"TEME","PERIAPSIS":"537.630","MEAN_ELEMENT_THEORY":"SGP4","RA_OF_ASC_NODE":"155.8454","MEAN_ANOMALY":"315.2399","ARG_OF_PERICENTER":"44.8837","ELEMENT_SET_NO":"999","SEMIMAJOR_AXIS":"6917.856","MEAN_MOTION_DDOT":"0.0000000000000","EPHEMERIS_TYPE":"0","RCS_SIZE":"LARGE","CENTER_NAME":"EARTH","TIME_SYSTEM":"UTC","ECCENTRICITY":"0.00030230"},{"CENTER_NAME":"EARTH","RCS_SIZE":"LARGE","ECCENTRICITY":"0.00011730","TIME_SYSTEM":"UTC","MEAN_ELEMENT_THEORY":"SGP4","PERIAPSIS":"538.961","REF_FRAME":"TEME","EPHEMERIS_TYPE":"0","SEMIMAJOR_AXIS":"6917.907","MEAN_MOTION_DDOT":"0.0000000000000","ELEMENT_SET_NO":"999","MEAN_ANOMALY":"313.9912","ARG_OF_PERICENTER":"46.1177","RA_OF_ASC_NODE":"156.8184","TLE_LINE2":"2 51957  53.2176 156.8184 0001173  46.1177 313.9912 15.08831136 47414","PERIOD":"95.438","MEAN_MOTION_DOT":"-0.00000499","OBJECT_ID":"2022-025B","NORAD_CAT_ID":"51957","INCLINATION":"53.2176","EPOCH":"2023-01-13T13:03:31.940352","MEAN_MOTION":"15.08831136","OBJECT_TYPE":"PAYLOAD","SITE":"AFETR","DECAY_DATE":null,"FILE":"3743417","BSTAR":"-0.00001330200000","GP_ID":"222942135","TLE_LINE1":"1 51957U 22025B   23013.54411968 -.00000499  00000-0 -13302-4 0  9992","REV_AT_EPOCH":"4741","CLASSIFICATION_TYPE":"U","OBJECT_NAME":"STARLINK-3694","LAUNCH_DATE":"2022-03-09","COUNTRY_CODE":"US","APOAPSIS":"540.584"},{"TLE_LINE2":"2 51958  53.2151 155.8608 0002703  51.6123 308.5111 15.08847926 47448","MEAN_MOTION_DOT":"0.00006827","PERIOD":"95.437","OBJECT_ID":"2022-025C","NORAD_CAT_ID":"51958","INCLINATION":"53.2151","MEAN_MOTION":"15.08847926","EPOCH":"2023-01-13T18:10:53.055264","OBJECT_TYPE":"PAYLOAD","SITE":"AFETR","FILE":"3743722","DECAY_DATE":null,"GP_ID":"222974157","BSTAR":"0.00044651000000","TLE_LINE1":"1 51958U 22025C   23013.75755851  .00006827  00000-0  44651-3 0  9997","OBJECT_NAME":"STARLINK-3692","CLASSIFICATION_TYPE":"U","REV_AT_EPOCH":"4744","LAUNCH_DATE":"2022-03-09","COUNTRY_CODE":"US","APOAPSIS":"541.591","CENTER_NAME":"EARTH","RCS_SIZE":"LARGE","ECCENTRICITY":"0.00027030","TIME_SYSTEM":"UTC","PERIAPSIS":"537.851","REF_FRAME":"TEME","MEAN_ELEMENT_THEORY":"SGP4","SEMIMAJOR_AXIS":"6917.856","MEAN_MOTION_DDOT":"0.0000000000000","EPHEMERIS_TYPE":"0","ELEMENT_SET_NO":"999","ARG_OF_PERICENTER":"51.6123","MEAN_ANOMALY":"308.5111","RA_OF_ASC_NODE":"155.8608"},{"TLE_LINE2":"2 51959  53.2163 156.1964 0003393  34.8741 325.2473 15.08820986 47439","OBJECT_ID":"2022-025D","PERIOD":"95.439","MEAN_MOTION_DOT":"-0.00002053","NORAD_CAT_ID":"51959","INCLINATION":"53.2163","EPOCH":"2023-01-13T16:19:36.480576","MEAN_MOTION":"15.08820986","OBJECT_TYPE":"PAYLOAD","SITE":"AFETR","FILE":"3743722","DECAY_DATE":null,"BSTAR":"-0.00011095000000","GP_ID":"222974407","TLE_LINE1":"1 51959U 22025D   23013.68028334 -.00002053  00000-0 -11095-3 0  9994","OBJECT_NAME":"STARLINK-3704","REV_AT_EPOCH":"4743","CLASSIFICATION_TYPE":"U","LAUNCH_DATE":"2022-03-09","COUNTRY_CODE":"US","APOAPSIS":"542.151","CENTER_NAME":"EARTH","RCS_SIZE":"LARGE","ECCENTRICITY":"0.00033930","TIME_SYSTEM":"UTC","MEAN_ELEMENT_THEORY":"SGP4","PERIAPSIS":"537.456","REF_FRAME":"TEME","EPHEMERIS_TYPE":"0","MEAN_MOTION_DDOT":"0.0000000000000","SEMIMAJOR_AXIS":"6917.939","ELEMENT_SET_NO":"999","ARG_OF_PERICENTER":"34.8741","MEAN_ANOMALY":"325.2473","RA_OF_ASC_NODE":"156.1964"}];
